ONEWEB-0709             
1 55172U 23004AJ  24201.39406842  .00000024  00000+0  32802-4 0  9998
2 55172  87.8985 159.9932 0000972  80.0111 280.1126 13.11420619 74418
ONEWEB-0710             
1 55173U 23004AK  24201.57866061  .00000007  00000+0 -15833-4 0  9999
2 55173  87.9186 144.7957 0001951  83.8332 276.3021 13.17646548 75718
ONEWEB-0711             
1 55174U 23004AL  24201.59413472 -.00000180  00000+0 -54497-3 0  9997
2 55174  87.8981 159.9228 0002589 101.6948 258.4470 13.11416868 74408
ONEWEB-0713             
1 55175U 23004AM  24201.38390872 -.00000355  00000+0 -10388-2 0  9997
2 55175  87.8982 159.9724 0002277  91.8754 268.2635 13.11420161 74368
ONEWEB-0715             
1 55176U 23004AN  24201.37880921 -.00000465  00000+0 -13468-2 0  9990
2 55176  87.8983 159.9737 0001731  89.7624 270.3702 13.11418605 74404
ONEWEB-0716             
1 55177U 23004AP  24201.57218724  .00000033  00000+0  51013-4 0  9998
2 55177  87.9190 144.7893 0002180  76.7504 283.3871 13.17648097 75715
ONEWEB-0717             
1 55178U 23004AQ  24201.55440959  .00000113  00000+0  25734-3 0  9993
2 55178  87.9188 144.7564 0002230 105.0797 255.0581 13.17647968 75769
ONEWEB-0719             
1 55179U 23004AR  24201.56573885  .00000054  00000+0  10577-3 0  9993
2 55179  87.9188 144.7404 0002388  79.8807 280.2594 13.17649563 75719
ONEWEB-0530             
1 55796U 23029A   24201.59769027  .00000087  00000+0  18082-3 0  9998
2 55796  87.9186  53.2586 0002221  96.8016 263.3370 13.20771447 69060
ONEWEB-0534             
1 55797U 23029B   24201.58505518  .00000005  00000+0 -20215-4 0  9994
2 55797  87.9187  53.2683 0001942  80.4164 279.7189 13.20772411 69063
ONEWEB-0556             
1 55798U 23029C   24201.59137373 -.00000105  00000+0 -29081-3 0  9997
2 55798  87.9186  53.2601 0002713  82.6474 277.4968 13.20771741 69063
ONEWEB-0562             
1 55799U 23029D   24201.57874620  .00000017  00000+0  10313-4 0  9998
2 55799  87.9188  53.2537 0002794  96.8070 263.3381 13.20770681 69067
ONEWEB-0563             
1 55800U 23029E   24201.57242120  .00000038  00000+0  61484-4 0  9993
2 55800  87.9188  53.2699 0001943  76.0003 284.1346 13.20771713 69058
ONEWEB-0564             
1 55801U 23029F   24201.56612011  .00000034  00000+0  51939-4 0  9993
2 55801  87.9190  53.2568 0002007  95.8683 264.2679 13.20771369 69068
ONEWEB-0638             
1 55802U 23029G   24201.62133955  .00000239  00000+0  61031-3 0  9996
2 55802  87.8940  68.5281 0002392  72.6692 287.4699 13.14502955 67751
ONEWEB-0639             
1 55803U 23029H   24201.59323343  .00000017  00000+0  10043-4 0  9997
2 55803  87.9134  83.7852 0002062  35.2398 324.8870 13.19726405 66897
ONEWEB-0640             
1 55804U 23029J   24201.55473315  .00000208  00000+0  52614-3 0  9990
2 55804  87.8940  68.5365 0002511  66.0276 294.1116 13.14503086 67760
ONEWEB-0641             
1 55805U 23029K   24201.43685750  .00000072  00000+0  14669-3 0  9993
2 55805  87.9132  83.7977 0001779  68.8245 291.3078 13.19724993 66889
ONEWEB-0642             
1 55806U 23029L   24201.43212191 -.00000136  00000+0 -37312-3 0  9992
2 55806  87.9136  83.8225 0001657  41.8061 318.3198 13.19725403 66872
ONEWEB-0643             
1 55807U 23029M   24201.60071876 -.00000012  00000+0 -66714-4 0  9997
2 55807  87.8939  68.5049 0000981  53.6695 306.4525 13.14502373 67743
ONEWEB-0644             
1 55808U 23029N   24201.57901083  .00000000  00000+0 -31177-4 0  9997
2 55808  87.9139  83.7900 0001608  56.8485 303.2801 13.19724276 66891
ONEWEB-0645             
1 55809U 23029P   24201.57506358  .00000058  00000+0  11196-3 0  9994
2 55809  87.9138  83.7916 0002039  61.2749 298.8588 13.19724536 66890
ONEWEB-0646             
1 55810U 23029Q   24201.60506579  .00000038  00000+0  63670-4 0  9998
2 55810  87.9135  83.7845 0001679  70.6541 289.4774 13.19724893 66881
ONEWEB-0648             
1 55811U 23029R   24201.56900325 -.00000107  00000+0 -32385-3 0  9998
2 55811  87.8941  68.4820 0002193  44.2981 315.8323 13.14504114 67743
ONEWEB-0649             
1 55812U 23029S   24201.41632054  .00000028  00000+0  38449-4 0  9992
2 55812  87.9134  83.8173 0001868  65.2201 294.9126 13.19724502 66890
ONEWEB-0650             
1 55813U 23029T   24201.41158418  .00000058  00000+0  11150-3 0  9992
2 55813  87.9137  83.8206 0001643  68.7370 291.3938 13.19725503 66868
ONEWEB-0652             
1 55814U 23029U   24201.62610620  .00000269  00000+0  69234-3 0  9994
2 55814  87.8942  68.4831 0001850  82.4493 277.6847 13.14504074 67729
ONEWEB-0653             
1 55815U 23029V   24201.61023662  .00000228  00000+0  58085-3 0  9995
2 55815  87.8943  68.4669 0002095  80.4494 279.6872 13.14503579 67753
ONEWEB-0654             
1 55816U 23029W   24201.52936192  .00000115  00000+0  27589-3 0  9997
2 55816  87.8940  68.4924 0002126  90.9479 269.1895 13.14503233 67766
ONEWEB-0656             
1 55817U 23029X   24201.55980898  .00000020  00000+0  16903-4 0  9997
2 55817  87.9188  53.2000 0001909 105.4230 254.7115 13.20771662 69064
ONEWEB-0657             
1 55818U 23029Y   24201.40686690  .00000117  00000+0  25910-3 0  9999
2 55818  87.9137  83.8267 0001346 107.6314 252.4965 13.19726692 66870
ONEWEB-0658             
1 55819U 23029Z   24201.17465504  .00000149  00000+0  33920-3 0  9998
2 55819  87.9136  83.8085 0001612  57.5759 302.5529 13.19725031 66857
ONEWEB-0660             
1 55820U 23029AA  24201.58327615 -.00000140  00000+0 -41285-3 0  9991
2 55820  87.8940  68.4558 0002086  67.3841 292.7509 13.14503987 67759
ONEWEB-0661             
1 55821U 23029AB  24201.61817007  .00000268  00000+0  68831-3 0  9990
2 55821  87.8941  68.5162 0002165  71.2614 288.8751 13.14502248 67746
ONEWEB-0662             
1 55822U 23029AC  24201.57693665 -.00000123  00000+0 -36603-3 0  9992
2 55822  87.8942  68.5318 0001887  68.8111 291.3220 13.14502264 67787
ONEWEB-0663             
1 55823U 23029AD  24201.55234942  .00000088  00000+0  18482-3 0  9993
2 55823  87.9189  53.2618 0001910  71.1011 289.0329 13.20791932 69054
ONEWEB-0664             
1 55824U 23029AE  24201.62293430  .00000051  00000+0  93559-4 0  9998
2 55824  87.9191  53.2615 0002303  83.1350 277.0046 13.20770599 69061
ONEWEB-0665             
1 55825U 23029AF  24201.61499601  .00000202  00000+0  51108-3 0  9997
2 55825  87.8940  68.4918 0001949  70.6744 289.4596 13.14502815 67769
ONEWEB-0666             
1 55826U 23029AG  24201.61662077  .00000090  00000+0  18899-3 0  9992
2 55826  87.9189  53.2532 0001885  98.0086 262.1261 13.20772296 69074
ONEWEB-0667             
1 55827U 23029AH  24201.61030635  .00000092  00000+0  19484-3 0  9995
2 55827  87.9188  53.1878 0002050  77.8246 282.3117 13.20770058 69061
ONEWEB-0669             
1 55828U 23029AJ  24201.60557136 -.00000079  00000+0 -22629-3 0  9997
2 55828  87.9186  53.2261 0002438  96.6456 263.4955 13.20770605 69067
ONEWEB-0670             
1 55829U 23029AK  24201.59278664 -.00000325  00000+0 -91222-3 0  9991
2 55829  87.8944  68.5030 0002247  74.0524 286.0853 13.14502118 67786
ONEWEB-0671             
1 55830U 23029AL  24201.62481980  .00000059  00000+0  11549-3 0  9990
2 55830  87.9134  83.7811 0002095  73.3821 286.7541 13.19726805 66897
ONEWEB-0672             
1 55831U 23029AM  24201.60083283  .00000068  00000+0  13627-3 0  9992
2 55831  87.9187  53.2111 0001791  94.6666 265.4672 13.20770981 69063
ONEWEB-0673             
1 55832U 23029AN  24201.60113292  .00000064  00000+0  12806-3 0  9991
2 55832  87.9133  83.7527 0002002  71.1322 289.0027 13.19726006 66890
ONEWEB-0674             
1 55833U 23029AP  24201.56108065  .00000019  00000+0  17427-4 0  9994
2 55833  87.8941  68.5131 0002361  76.7451 283.3942 13.14501859 67763
ONEWEB-0675             
1 55834U 23029AQ  24201.61691487  .00000138  00000+0  31249-3 0  9995
2 55834  87.9137  83.7837 0001452  80.9968 279.1329 13.19724071 66910
ONEWEB-0720             
1 55835U 23029AR  24201.60902429  .00000117  00000+0  25911-3 0  9992
2 55835  87.9136  83.7856 0001884  61.7219 298.4103 13.19724786 66834
ONEWEB-0537             
1 56046U 23043A   24201.46651209  .00000125  00000+0  29333-3 0  9995
2 56046  87.9107   7.6701 0001645 102.2066 257.9250 13.16593975 67157
ONEWEB-0538             
1 56047U 23043B   24201.53617247  .00000107  00000+0  24760-3 0  9997
2 56047  87.9108   7.6760 0001492  89.9186 270.2116 13.16593723 67170
ONEWEB-0546             
1 56048U 23043C   24201.52350636  .00000206  00000+0  50572-3 0  9993
2 56048  87.9109   7.6428 0001983 118.5840 241.5491 13.16593571 67161
ONEWEB-0547             
1 56049U 23043D   24201.55564014 -.00000004  00000+0 -41685-4 0  9998
2 56049  87.9280  22.8576 0001583  86.7839 273.3476 13.21824797 66062
ONEWEB-0548             
1 56050U 23043E   24201.47284363  .00000071  00000+0  15132-3 0  9996
2 56050  87.9109   7.6961 0002371  88.2641 271.8762 13.16593835 67159
ONEWEB-0549             
1 56051U 23043F   24201.54697361  .00000093  00000+0  19316-3 0  9993
2 56051  87.9281  22.8595 0001724  85.4681 274.6650 13.21826372 66064
ONEWEB-0550             
1 56052U 23043G   24201.53435078 -.00000137  00000+0 -36317-3 0  9999
2 56052  87.9280  22.8687 0002005  85.8806 274.2557 13.21827224 66061
ONEWEB-0551             
1 56053U 23043H   24201.55740580  .00000055  00000+0  11173-3 0  9999
2 56053  87.9019  38.0590 0001657  79.3057 280.8260 13.15550712 64679
ONEWEB-0552             
1 56054U 23043J   24201.52804662 -.00000146  00000+0 -38603-3 0  9999
2 56054  87.9276  22.8793 0001921  80.5531 279.5820 13.21825256 66063
ONEWEB-0553             
1 56055U 23043K   24201.45384543  .00000104  00000+0  23777-3 0  9991
2 56055  87.9107   7.6885 0001796 104.7682 255.3648 13.16593741 67163
ONEWEB-0554             
1 56056U 23043L   24201.51717533  .00000027  00000+0  38259-4 0  9994
2 56056  87.9111   7.6979 0002432  85.4102 274.7307 13.16593411 67153
